OBJECT_NAME,OBJECT_ID,EPOCH,MEAN_MOTION,ECCENTRICITY,INCLINATION,RA_OF_ASC_NODE,ARG_OF_PERICENTER,MEAN_ANOMALY,EPHEMERIS_TYPE,CLASSIFICATION_TYPE,NORAD_CAT_ID,ELEMENT_SET_NO,REV_AT_EPOCH,BSTAR,MEAN_MOTION_DOT,MEAN_MOTION_DDOT
PERSEUS-M1,2014-033AF,2026-05-11T08:55:35.622048,14.95504312,.0012879,97.9625,74.9084,63.1594,297.0942,0,U,40039,999,64513,.10622E-3,.1117E-4,0
POLYITAN-1,2014-033AJ,2026-05-11T11:44:20.169312,15.31985615,.000536,98.0977,154.3150,273.2288,86.8338,0,U,40042,999,64797,.35618E-3,.10919E-3,0
TIGRISAT,2014-033AK,2026-05-11T09:28:29.342784,14.85002615,.0049146,97.7788,282.2635,193.7776,166.2101,0,U,40043,999,64016,.17873E-3,.1502E-4,0
AEROCUBE 6A,2014-033AM,2026-05-11T09:59:00.102624,14.97694773,.0040204,97.7212,298.7743,136.9009,223.5373,0,U,40045,999,64111,.41286E-3,.4858E-4,0
AEROCUBE 6B,2014-033AN,2026-05-11T09:17:11.640192,14.99117723,.0037795,97.7175,298.4627,130.4569,229.9960,0,U,40046,999,64124,.33215E-3,.4036E-4,0
CANX-4,2014-034C,2026-05-11T04:49:09.268608,14.81195001,.0013819,98.3173,5.1488,126.4174,233.8314,0,U,40055,999,63905,.7732E-4,.545E-5,0
CANX-5,2014-034D,2026-05-11T04:47:30.761376,14.81211971,.0013811,98.3174,5.1889,126.6488,233.5995,0,U,40056,999,62986,.76211E-4,.537E-5,0
UKUBE-1,2014-037F,2026-05-10T22:33:35.841024,15.12954494,.00005199,98.4249,130.3192,43.5376,316.5894,0,U,40074,999,64292,.31570723E-3,.5489E-4,0
BRITE-PL2 (HEWELIUSZ),2014-049B,2026-05-11T06:45:20.937312,14.94454349,.0012984,97.9056,243.0096,228.2405,131.7706,0,U,40119,999,63593,.89657E-4,.908E-5,0
AEROCUBE 5C,2015-058B,2026-05-11T00:29:58.665696,14.91240223,.0129755,64.7690,18.1937,77.8891,283.6724,0,U,40965,999,36011,.19503E-3,.2105E-4,0
AEROCUBE 7,2015-058C,2026-05-11T01:19:53.580864,14.95434149,.0119555,64.7640,1.0944,76.5651,284.8755,0,U,40966,999,36040,.24264E-3,.2922E-4,0
FOX-1A (AO-85),2015-058D,2026-05-11T02:57:35.313696,14.90748371,.01289118,64.7766,34.1460,71.1275,290.3763,0,U,40967,999,10804,.20423035E-3,.2179E-4,0
SINOD-D 1,2015-058E,2026-05-11T02:30:48.170016,14.95612391,.0117393,64.7770,15.0135,67.9327,293.4204,0,U,40968,999,11111,.25114E-3,.303E-4,0
SNAP-3 ALICE,2015-058G,2026-05-11T13:01:17.623776,15.53252455,.0032702,64.7531,229.8456,31.6012,328.7085,0,U,40970,999,11118,.82454E-3,.53534E-3,0
LMRST-SAT,2015-058H,2026-05-11T03:16:23.202624,14.90373880,.01306956,64.7773,30.3740,73.1434,288.3963,0,U,40971,999,10803,.20352506E-3,.2158E-4,0
SNAP-3 EDDIE,2015-058J,2026-05-11T08:49:07.672224,15.54381568,.0033156,64.7449,221.4318,35.3408,324.9923,0,U,40972,999,11329,.80795E-3,.5472E-3,0
PROPCUBE 3,2015-058K,2026-05-11T01:28:41.735424,14.94001315,.0122896,64.7702,8.5073,74.6954,286.7704,0,U,40973,999,10925,.22658E-3,.263E-4,0
BISONSAT,2015-058L,2026-05-11T09:59:33.110016,15.15441294,.0078661,64.7596,292.4500,63.2617,297.6530,0,U,40974,999,11004,.39564E-3,.7922E-4,0
SNAP-3 JIMI,2015-058M,2026-05-10T21:44:19.856832,15.01913119,.01048532,64.7663,337.6932,70.8247,290.4183,0,U,40975,999,10862,.29620114E-3,.4186E-4,0
PROPCUBE 1 (FLORA),2015-058N,2026-05-11T04:35:51.254880,14.89008449,.0129508,64.7756,49.8749,75.3994,286.1437,0,U,40976,999,11075,.19789E-3,.2008E-4,0
SINOD-D 3,2015-058P,2026-05-11T10:07:06.873312,14.93730584,.0118006,64.7740,30.6004,72.8153,288.5839,0,U,40977,999,10926,.24535E-3,.2808E-4,0
HORYU-4,2016-012D,2026-05-11T06:51:46.653696,15.77627196,.00057,30.9892,345.7069,11.0917,348.9865,0,U,41340,999,56495,.72298E-3,.128087E-2,0
RAVAN,2016-067B,2026-05-11T05:58:00.848352,15.51318395,.0007217,97.9940,16.6547,124.1887,236.0048,0,U,41849,999,52196,.48801E-3,.28639E-3,0
CELTEE 1,2016-067C,2026-05-11T01:34:55.337664,15.19312541,.0001895,98.0724,355.1030,61.4203,298.7220,0,U,41850,999,52024,.14632E-3,.3011E-4,0
OPTICUBE 04,2016-067D,2026-05-11T03:47:58.282944,15.09500079,.0014388,98.0739,341.5069,240.6297,119.3494,0,U,41851,999,51958,.79064E-4,.1198E-4,0
AEROCUBE 8D,2016-067E,2026-05-11T04:37:41.921184,15.23875407,.0001891,98.0737,358.5566,257.1576,102.9448,0,U,41852,999,52043,.18991E-3,.4501E-4,0
AEROCUBE 8C,2016-067F,2026-05-11T02:13:04.065024,15.24112366,.0005354,98.0607,355.7248,173.2379,186.8929,0,U,41853,999,52041,.2048E-3,.4897E-4,0
CORVUS BC2,2017-042X,2026-05-11T09:20:50.875008,15.06059278,.0011937,97.4038,294.1847,233.9363,126.0760,0,U,42846,999,48152,.1687E-3,.2406E-4,0
CORVUS BC1,2017-042Y,2026-05-11T09:19:06.337920,15.06231488,.0011215,97.4071,294.9735,207.6049,152.4584,0,U,42847,999,48155,.16752E-3,.24E-4,0
MAKERSAT 0,2017-073D,2026-05-11T04:40:00.308064,15.30516462,.0112017,97.4680,13.4606,45.4177,315.6139,0,U,43016,999,46080,.45809E-3,.16348E-3,0
